     2.100          NAVIGATION                              RINEX VERSION / TYPE
fic2rin                                 12/12/2012 00:08:31 PGM / RUN BY / DATE
                                                            END OF HEADER
31 12 12 11 14  0  0.0  .291671138257D-03  .204636307899D-11  .000000000000D+00
     .800000000000D+02 -.737812500000D+02  .415338729097D-08  .139711805459D+01
    -.388734042645D-05  .807051185984D-02  .666826963425D-06  .515378680038D+04
     .223200000000D+06  .158324837685D-06 -.157664669419D+01 -.316649675369D-07
     .980556373983D+00  .373375000000D+03 -.836581248978D+00 -.822962851135D-08
    -.191079387795D-09  .100000000000D+01  .171800000000D+04  .000000000000D+00
     .340000000000D+01  .000000000000D+00 -.135041773319D-07  .800000000000D+02
     .216006000000D+06  .400000000000D+01
32 12 12 11 14  0  0.0 -.515935942531D-03 -.352429196937D-11  .000000000000D+00
     .980000000000D+02  .812500000000D+02  .437482508617D-08  .202363967923D+01
     .427290797234D-05  .117354678223D-01  .121314078569D-04  .515380019379D+04
     .223200000000D+06  .689178705215D-07  .267740697106D+01  .154599547386D-06
     .950506329410D+00  .137593750000D+03 -.437449328812D+00 -.771675000504D-08
    -.617168564691D-09  .100000000000D+01  .171800000000D+04  .000000000000D+00
     .240000000000D+01  .000000000000D+00 -.325962901115D-08  .980000000000D+02
     .216006000000D+06  .400000000000D+01
20 12 12 11 13 59 44.0  .761137343943D-04  .125055521494D-11  .000000000000D+00
     .200000000000D+01  .520312500000D+02  .503092384389D-08 -.430295482391D-01
     .267848372459D-05  .536752340849D-02  .120792537928D-04  .515358531380D+04
     .223184000000D+06 -.372529029846D-07  .254111997502D+01  .298023223877D-07
     .929065303185D+00  .129343750000D+03  .127463666475D+01 -.820891336276D-08
    -.604668043994D-09  .100000000000D+01  .171800000000D+04  .000000000000D+00
     .240000000000D+01  .000000000000D+00 -.791624188423D-08  .200000000000D+01
     .216876000000D+06  .400000000000D+01
26 12 12 11 13 59 44.0 -.178722664714D-03  .135287336889D-10  .000000000000D+00
     .280000000000D+02  .161968750000D+03  .388266172845D-08  .293454088391D+01
     .815279781818D-05  .209191369358D-01  .423006713390D-05  .515366369057D+04
     .223184000000D+06  .128522515297D-06 -.255609214281D+01 -.234693288803D-06
     .981236101314D+00  .303812500000D+03  .121203457168D+01 -.775103714752D-08
     .328585115460D-09  .100000000000D+01  .171800000000D+04  .000000000000D+00
     .240000000000D+01  .000000000000D+00 -.605359673500D-08  .280000000000D+02
     .219456000000D+06  .400000000000D+01
20 12 12 11 15 59 44.0  .761225819588D-04  .125055521494D-11  .000000000000D+00
     .150000000000D+02  .432812500000D+02  .503913847177D-08  .100710896325D+01
     .221654772758D-05  .536716787610D-02  .119395554066D-04  .515358519554D+04
     .230384000000D+06 -.819563865662D-07  .254106081608D+01  .149011611938D-07
     .929060965633D+00  .133343750000D+03  .127473774946D+01 -.819248410699D-08
    -.592167523297D-09  .100000000000D+01  .171800000000D+04  .000000000000D+00
     .240000000000D+01  .000000000000D+00 -.791624188423D-08  .150000000000D+02
     .223206000000D+06  .400000000000D+01
26 12 12 11 15 59 44.0 -.178625341505D-03  .135287336889D-10  .000000000000D+00
     .570000000000D+02  .161718750000D+03  .402588197986D-08 -.229850173807D+01
     .826083123684D-05  .209214710630D-01  .349618494511D-05  .515365917397D+04
     .230384000000D+06  .219792127609D-06 -.255614862900D+01 -.115483999252D-06
     .981238892561D+00  .322625000000D+03  .121207648136D+01 -.777710966212D-08
     .432160858377D-09  .100000000000D+01  .171800000000D+04  .000000000000D+00
     .240000000000D+01  .000000000000D+00 -.605359673500D-08  .570000000000D+02
     .223206000000D+06  .400000000000D+01
 1 12 12 11 16  0  0.0  .286963302642D-03  .204636307899D-11  .000000000000D+00
     .790000000000D+02 -.194062500000D+02  .508128308441D-08  .284577527195D+01
    -.100024044514D-05  .148730014917D-02  .580586493015D-05  .515370027351D+04
     .230400000000D+06 -.763684511185D-07  .154198922131D+01  .149011611938D-07
     .959576534146D+00  .266937500000D+03  .521322449710D+00 -.816962601200D-08
    -.353228999120D-09  .100000000000D+01  .171800000000D+04  .000000000000D+00
     .240000000000D+01  .000000000000D+00  .838190317154D-08  .790000000000D+02
     .223206000000D+06  .400000000000D+01
 2 12 12 11 16  0  0.0  .411355402321D-03  .102318153949D-11  .000000000000D+00
     .480000000000D+02 -.220312500000D+02  .561737684344D-08 -.243616066892D+01
    -.115670263767D-05  .117373111425D-01  .548548996449D-05  .515356142616D+04
     .230400000000D+06  .465661287308D-07  .152397332518D+01 -.257045030594D-06
     .938099429435D+00  .260468750000D+03 -.270867867657D+01 -.838713507213D-08
    -.265011038773D-09  .100000000000D+01  .171800000000D+04  .000000000000D+00
     .240000000000D+01  .000000000000D+00 -.176951289177D-07  .480000000000D+02
     .223206000000D+06  .400000000000D+01
 3 12 12 11 16  0  0.0  .140273477882D-03  .511590769747D-11  .000000000000D+00
     .950000000000D+02  .209687500000D+02  .513985695282D-08 -.225927939464D+01
     .927597284317D-06  .158614788670D-01  .966712832451D-05  .515376086617D+04
     .230400000000D+06  .186264514923D-06  .356747311066D+00 -.745058059692D-08
     .933154666849D+00  .172062500000D+03  .125874157852D+01 -.799211861811D-08
     .836463413487D-09  .100000000000D+01  .171800000000D+04  .000000000000D+00
     .485000000000D+01  .000000000000D+00 -.465661287308D-08  .950000000000D+02
     .223206000000D+06  .400000000000D+01
 4 12 12 11 16  0  0.0  .721556134522D-04  .112549969344D-10  .000000000000D+00
     .570000000000D+02 -.181875000000D+02  .572452416369D-08  .854439445461D+00
    -.713393092155D-06  .104283090914D-01  .586919486523D-05  .515369429016D+04
     .230400000000D+06 -.838190317154D-07  .154061595670D+01  .100582838058D-06
     .937144291684D+00  .256656250000D+03  .943262791481D+00 -.866250368519D-08
    -.457161899771D-09  .100000000000D+01  .171800000000D+04  .000000000000D+00
     .240000000000D+01  .000000000000D+00 -.651925802231D-08  .570000000000D+02
     .223206000000D+06  .400000000000D+01
 5 12 12 11 16  0  0.0 -.372156500816D-03 -.227373675443D-11  .000000000000D+00
     .540000000000D+02  .566875000000D+02  .452768859640D-08 -.352087094824D+00
     .283308327198D-05  .314575573429D-02  .129658728838D-04  .515380685806D+04
     .230400000000D+06  .279396772385D-07  .258847814718D+01 -.167638063431D-07
     .949841320498D+00  .122593750000D+03  .290733161997D+00 -.790354350003D-08
    -.622525930704D-09  .100000000000D+01  .171800000000D+04  .000000000000D+00
     .240000000000D+01  .000000000000D+00 -.102445483208D-07  .540000000000D+02
     .223206000000D+06  .400000000000D+01
 6 12 12 11 16  0  0.0  .427865888923D-03 -.128466126625D-10  .000000000000D+00
     .460000000000D+02  .157187500000D+02  .517307262210D-08 -.358185578976D+00
     .724568963051D-06  .747217936441D-02  .941939651966D-05  .515368316460D+04
     .230400000000D+06  .260770320892D-07  .434897660285D+00 -.124797224998D-06
     .939834100640D+00  .187281250000D+03 -.407621283520D+00 -.833248993879D-08
     .741102298457D-09  .100000000000D+01  .171800000000D+04  .000000000000D+00
     .240000000000D+01  .000000000000D+00 -.512227416039D-08  .460000000000D+02
     .223206000000D+06  .400000000000D+01
 7 12 12 11 16  0  0.0  .155862420797D-03  .443378667114D-11  .000000000000D+00
     .780000000000D+02 -.774375000000D+02  .442196990708D-08  .247305595296D+01
    -.400282442570D-05  .605573202483D-02  .983476638794D-06  .515371261978D+04
     .230400000000D+06 -.182539224625D-06 -.158050428628D+01  .372529029846D-08
     .975528347951D+00  .368875000000D+03 -.292628154394D+01 -.835249077191D-08
    -.214294640518D-09  .100000000000D+01  .171800000000D+04  .000000000000D+00
     .240000000000D+01  .000000000000D+00 -.111758708954D-07  .780000000000D+02
     .223206000000D+06  .400000000000D+01
 8 12 12 11 16  0  0.0  .341329723597D-05  .341060513165D-12  .000000000000D+00
     .870000000000D+02 -.961250000000D+02  .390409119250D-08  .186800496547D+01
    -.492110848427D-05  .127320918255D-01  .202842056751D-05  .515362205124D+04
     .230400000000D+06 -.173225998878D-06 -.149283794315D+01  .210478901863D-06
     .998000592445D+00  .363593750000D+03 -.289158834222D+01 -.814069623553D-08
    -.405374028313D-09  .100000000000D+01  .171800000000D+04  .000000000000D+00
     .240000000000D+01  .000000000000D+00 -.419095158577D-08  .870000000000D+02
     .223206000000D+06  .400000000000D+01
 9 12 12 11 16  0  0.0  .205896794796D-03  .272848410532D-11  .000000000000D+00
     .800000000000D+02 -.649375000000D+02  .409838499990D-08  .210536460733D+01
    -.359304249287D-05  .170599811245D-01 -.314787030220D-06  .515284455872D+04
     .230400000000D+06  .286847352982D-06 -.160485515019D+01 -.502914190292D-07
     .984205074538D+00  .395468750000D+03  .163385128810D+01 -.814141055100D-08
    -.218580533328D-09  .100000000000D+01  .171800000000D+04  .000000000000D+00
     .240000000000D+01  .000000000000D+00 -.558793544769D-08  .800000000000D+02
     .223206000000D+06  .400000000000D+01
10 12 12 11 16  0  0.0 -.617830082774D-04 -.147792889038D-11  .000000000000D+00
     .370000000000D+02  .673437500000D+02  .470233872843D-08 -.184041297144D-01
     .359676778316D-05  .121204332681D-01  .121053308249D-04  .515375170135D+04
     .230400000000D+06  .186264514923D-07  .260888140273D+01  .132247805595D-06
     .944709904194D+00  .135468750000D+03  .779336023982D+00 -.815783980677D-08
    -.601453624386D-09  .100000000000D+01  .171800000000D+04  .000000000000D+00
     .240000000000D+01  .000000000000D+00 -.279396772385D-08  .370000000000D+02
     .223206000000D+06  .400000000000D+01
